{"type": "FeatureCollection", "features": [ {"type": "Feature", "properties": {"norad_id": 34833, "name": "IRIDIUM 33 DEB", "group": "iridium-33-debris", "lat": 51.66645682049353, "lon": -132.1075886913083, "alt_km": 698.7018404379196, "timestamp": "2025-12-09T07:41:33.595896+00:00", "meta": {"OBJECT_NAME": "IRIDIUM 33 DEB", "OBJECT_ID": "1997-051MH", "EPOCH": "2025-12-08T23:05:30.624000", "MEAN_MOTION": 14.52340572, "ECCENTRICITY": 0.00217836, "INCLINATION": 86.3932, "RA_OF_ASC_NODE": 52.6222, "ARG_OF_PERICENTER": 110.1341, "MEAN_ANOMALY": 305.4079, "EPHEMERIS_TYPE": 0, "CLASSIFICATION_TYPE": "U", "NORAD_CAT_ID": 34833, "ELEMENT_SET_NO": 999, "REV_AT_EPOCH": 87660, "BSTAR": 0.00097622304, "MEAN_MOTION_DOT": 4.003e-05, "MEAN_MOTION_DDOT": 0}, "tle": {"line1": "1 34833U 97051MH  25342.96216000  .00004003  00000+0  97622-3 0  9998", "line2": "2 34833  86.3932  52.6222 0021783 110.1341 305.4079 14.52340572876603"}}, "geometry": {"type": "Point", "coordinates": [-132.1075886913083, 51.66645682049353]}}, {"type": "Feature", "properties": {"norad_id": 34870, "name": "IRIDIUM 33 DEB", "group": "iridium-33-debris", "lat": 14.999359989387456, "lon": 134.65829226489907, "alt_km": 632.6269861963128, "timestamp": "2025-12-09T07:41:33.595914+00:00", "meta": {"OBJECT_NAME": "IRIDIUM 33 DEB", "OBJECT_ID": "1997-051MQ", "EPOCH": "2025-12-07T16:41:29.147136", "MEAN_MOTION": 14.76272854, "ECCENTRICITY": 0.00154972, "INCLINATION": 86.3098, "RA_OF_ASC_NODE": 316.3932, "ARG_OF_PERICENTER": 201.8058, "MEAN_ANOMALY": 332.1989, "EPHEMERIS_TYPE": 0, "CLASSIFICATION_TYPE": "U", "NORAD_CAT_ID": 34870, "ELEMENT_SET_NO": 999, "REV_AT_EPOCH": 88836, "BSTAR": 0.0021061979, "MEAN_MOTION_DOT": 0.00014658, "MEAN_MOTION_DDOT": 0}, "tle": {"line1": "1 34870U 97051MQ  25341.69547624  .00014658  00000+0  21062-2 0  9998", "line2": "2 34870  86.3098 316.3932 0015497 201.8058 332.1989 14.76272854888369"}}, "geometry": {"type": "Point", "coordinates": [134.65829226489907, 14.999359989387456]}}, {"type": "Feature", "properties": {"norad_id": 34896, "name": "IRIDIUM 33 DEB", "group": "iridium-33-debris", "lat": 49.55219166347874, "lon": 143.90017072423416, "alt_km": 670.8540618551742, "timestamp": "2025-12-09T07:41:33.595931+00:00", "meta": {"OBJECT_NAME": "IRIDIUM 33 DEB", "OBJECT_ID": "1997-051MY", "EPOCH": "2025-12-08T06:47:45.155328", "MEAN_MOTION": 14.66206819, "ECCENTRICITY": 0.00239488, "INCLINATION": 86.3293, "RA_OF_ASC_NODE": 328.6838, "ARG_OF_PERICENTER": 231.0822, "MEAN_ANOMALY": 187.3834, "EPHEMERIS_TYPE": 0, "CLASSIFICATION_TYPE": "U", "NORAD_CAT_ID": 34896, "ELEMENT_SET_NO": 999, "REV_AT_EPOCH": 87554, "BSTAR": 0.001338628, "MEAN_MOTION_DOT": 7.421e-05, "MEAN_MOTION_DDOT": 0}, "tle": {"line1": "1 34896U 97051MY  25342.28316152  .00007421  00000+0  13386-2 0  9992", "line2": "2 34896  86.3293 328.6838 0023948 231.0822 187.3834 14.66206819875541"}}, "geometry": {"type": "Point", "coordinates": [143.90017072423416, 49.55219166347874]}}, {"type": "Feature", "properties": {"norad_id": 34926, "name": "IRIDIUM 33 DEB", "group": "iridium-33-debris", "lat": 4.684425056451617, "lon": 10.175738530686267, "alt_km": 687.5300454643784, "timestamp": "2025-12-09T07:41:33.595947+00:00", "meta": {"OBJECT_NAME": "IRIDIUM 33 DEB", "OBJECT_ID": "1997-051NF", "EPOCH": "2025-12-08T20:21:33.151968", "MEAN_MOTION": 14.54128785, "ECCENTRICITY": 0.00760259, "INCLINATION": 86.132, "RA_OF_ASC_NODE": 10.0769, "ARG_OF_PERICENTER": 306.1088, "MEAN_ANOMALY": 107.4693, "EPHEMERIS_TYPE": 0, "CLASSIFICATION_TYPE": "U", "NORAD_CAT_ID": 34926, "ELEMENT_SET_NO": 999, "REV_AT_EPOCH": 86400, "BSTAR": 0.0065158018, "MEAN_MOTION_DOT": 0.00028723, "MEAN_MOTION_DDOT": 0}, "tle": {"line1": "1 34926U 97051NF  25342.84830037  .00028723  00000+0  65158-2 0  9993", "line2": "2 34926  86.1320  10.0769 0076025 306.1088 107.4693 14.54128785864008"}}, "geometry": {"type": "Point", "coordinates": [10.175738530686267, 4.684425056451617]}}, {"type": "Feature", "properties": {"norad_id": 34985, "name": "IRIDIUM 33 DEB", "group": "iridium-33-debris", "lat": -79.08236342674742, "lon": 39.120662360499225, "alt_km": 749.7984801418197, "timestamp": "2025-12-09T07:41:33.595964+00:00", "meta": {"OBJECT_NAME": "IRIDIUM 33 DEB", "OBJECT_ID": "1997-051NR", "EPOCH": "2025-12-08T05:40:04.658592", "MEAN_MOTION": 14.41979756, "ECCENTRICITY": 0.00202828, "INCLINATION": 86.3695, "RA_OF_ASC_NODE": 58.8006, "ARG_OF_PERICENTER": 235.2895, "MEAN_ANOMALY": 179.3648, "EPHEMERIS_TYPE": 0, "CLASSIFICATION_TYPE": "U", "NORAD_CAT_ID": 34985, "ELEMENT_SET_NO": 999, "REV_AT_EPOCH": 87110, "BSTAR": 0.0010950657, "MEAN_MOTION_DOT": 3.617e-05, "MEAN_MOTION_DDOT": 0}, "tle": {"line1": "1 34985U 97051NR  25342.23616503  .00003617  00000+0  10951-2 0  9997", "line2": "2 34985  86.3695  58.8006 0020282 235.2895 179.3648 14.41979756871101"}}, "geometry": {"type": "Point", "coordinates": [39.120662360499225, -79.08236342674742]}}, {"type": "Feature", "properties": {"norad_id": 35051, "name": "IRIDIUM 33 DEB", "group": "iridium-33-debris", "lat": 35.52153450903454, "lon": -172.27725860016977, "alt_km": 725.8665419176987, "timestamp": "2025-12-09T07:41:33.595980+00:00", "meta": {"OBJECT_NAME": "IRIDIUM 33 DEB", "OBJECT_ID": "1997-051NX", "EPOCH": "2025-12-08T19:24:58.044960", "MEAN_MOTION": 14.47572985, "ECCENTRICITY": 0.00105834, "INCLINATION": 86.3244, "RA_OF_ASC_NODE": 10.5757, "ARG_OF_PERICENTER": 101.6319, "MEAN_ANOMALY": 258.6072, "EPHEMERIS_TYPE": 0, "CLASSIFICATION_TYPE": "U", "NORAD_CAT_ID": 35051, "ELEMENT_SET_NO": 999, "REV_AT_EPOCH": 86939, "BSTAR": 0.001137816, "MEAN_MOTION_DOT": 4.208e-05, "MEAN_MOTION_DDOT": 0}, "tle": {"line1": "1 35051U 97051NX  25342.80900515  .00004208  00000+0  11378-2 0  9995", "line2": "2 35051  86.3244  10.5757 0010583 101.6319 258.6072 14.47572985869393"}}, "geometry": {"type": "Point", "coordinates": [-172.27725860016977, 35.52153450903454]}}, {"type": "Feature", "properties": {"norad_id": 35052, "name": "IRIDIUM 33 DEB", "group": "iridium-33-debris", "lat": 44.86698282819063, "lon": 25.603896195184234, "alt_km": 753.3573976559874, "timestamp": "2025-12-09T07:41:33.596000+00:00", "meta": {"OBJECT_NAME": "IRIDIUM 33 DEB", "OBJECT_ID": "1997-051NY", "EPOCH": "2025-12-08T19:47:53.049120", "MEAN_MOTION": 14.38486321, "ECCENTRICITY": 0.00136868, "INCLINATION": 86.3313, "RA_OF_ASC_NODE": 22.1547, "ARG_OF_PERICENTER": 95.9359, "MEAN_ANOMALY": 264.34, "EPHEMERIS_TYPE": 0, "CLASSIFICATION_TYPE": "U", "NORAD_CAT_ID": 35052, "ELEMENT_SET_NO": 999, "REV_AT_EPOCH": 87219, "BSTAR": 0.00035523348, "MEAN_MOTION_DOT": 1.105e-05, "MEAN_MOTION_DDOT": 0}, "tle": {"line1": "1 35052U 97051NY  25342.82491955  .00001105  00000+0  35523-3 0  9993", "line2": "2 35052  86.3313  22.1547 0013686  95.9359 264.3400 14.38486321872192"}}, "geometry": {"type": "Point", "coordinates": [25.603896195184234, 44.86698282819063]}}, {"type": "Feature", "properties": {"norad_id": 35080, "name": "IRIDIUM 33 DEB", "group": "iridium-33-debris", "lat": -0.4435750431853577, "lon": 53.97974030528373, "alt_km": 657.7168928134961, "timestamp": "2025-12-09T07:41:33.596019+00:00", "meta": {"OBJECT_NAME": "IRIDIUM 33 DEB", "OBJECT_ID": "1997-051PF", "EPOCH": "2025-12-08T04:12:23.440320", "MEAN_MOTION": 14.85168488, "ECCENTRICITY": 0.00618555, "INCLINATION": 86.2067, "RA_OF_ASC_NODE": 54.5559, "ARG_OF_PERICENTER": 196.3675, "MEAN_ANOMALY": 163.5554, "EPHEMERIS_TYPE": 0, "CLASSIFICATION_TYPE": "U", "NORAD_CAT_ID": 35080, "ELEMENT_SET_NO": 999, "REV_AT_EPOCH": 69620, "BSTAR": 0.0097703177, "MEAN_MOTION_DOT": 0.00087525, "MEAN_MOTION_DDOT": 0}, "tle": {"line1": "1 35080U 97051PF  25342.17527130  .00087525  00000+0  97703-2 0  9994", "line2": "2 35080  86.2067  54.5559 0061855 196.3675 163.5554 14.85168488696207"}}, "geometry": {"type": "Point", "coordinates": [53.97974030528373, -0.4435750431853577]}}, {"type": "Feature", "properties": {"norad_id": 35297, "name": "IRIDIUM 33 DEB", "group": "iridium-33-debris", "lat": -50.456611269869015, "lon": -111.39089851089494, "alt_km": 746.4941892265351, "timestamp": "2025-12-09T07:41:33.596035+00:00", "meta": {"OBJECT_NAME": "IRIDIUM 33 DEB", "OBJECT_ID": "1997-051PM", "EPOCH": "2025-12-06T00:31:29.302752", "MEAN_MOTION": 14.45108459, "ECCENTRICITY": 0.00170329, "INCLINATION": 86.3867, "RA_OF_ASC_NODE": 65.6268, "ARG_OF_PERICENTER": 161.2449, "MEAN_ANOMALY": 198.9384, "EPHEMERIS_TYPE": 0, "CLASSIFICATION_TYPE": "U", "NORAD_CAT_ID": 35297, "ELEMENT_SET_NO": 999, "REV_AT_EPOCH": 70329, "BSTAR": 0.0012426888, "MEAN_MOTION_DOT": 4.371e-05, "MEAN_MOTION_DDOT": 0}, "tle": {"line1": "1 35297U 97051PM  25340.02186693  .00004371  00000+0  12427-2 0  9999", "line2": "2 35297  86.3867  65.6268 0017032 161.2449 198.9384 14.45108459703293"}}, "geometry": {"type": "Point", "coordinates": [-111.39089851089494, -50.456611269869015]}}, {"type": "Feature", "properties": {"norad_id": 35299, "name": "IRIDIUM 33 DEB", "group": "iridium-33-debris", "lat": -36.62137904137528, "lon": -142.55960357703958, "alt_km": 771.675443930465, "timestamp": "2025-12-09T07:41:33.596054+00:00", "meta": {"OBJECT_NAME": "IRIDIUM 33 DEB", "OBJECT_ID": "1997-051PP", "EPOCH": "2025-12-08T14:43:37.905024", "MEAN_MOTION": 14.40830501, "ECCENTRICITY": 0.0058866, "INCLINATION": 86.2883, "RA_OF_ASC_NODE": 34.9826, "ARG_OF_PERICENTER": 115.5185, "MEAN_ANOMALY": 36.1002, "EPHEMERIS_TYPE": 0, "CLASSIFICATION_TYPE": "U", "NORAD_CAT_ID": 35299, "ELEMENT_SET_NO": 999, "REV_AT_EPOCH": 86271, "BSTAR": 0.001279, "MEAN_MOTION_DOT": 4.2e-05, "MEAN_MOTION_DDOT": 0}, "tle": {"line1": "1 35299U 97051PP  25342.61363316  .00004200  00000+0  12790-2 0  9991", "line2": "2 35299  86.2883  34.9826 0058866 115.5185  36.1002 14.40830501862718"}}, "geometry": {"type": "Point", "coordinates": [-142.55960357703958, -36.62137904137528]}}]}